DUPLEX                  
1 66906U 98067XS  26105.67341163  .00018775  00000+0  24592-3 0  9994
2 66906  51.6281 244.1205 0003916 295.6858  64.3730 15.58618928 20897
ISS OBJECT XT           
1 66907U 98067XT  26105.59333676  .00258484  00000+0  97055-3 0  9993
2 66907  51.6200 235.2559 0010423 315.1475  44.8686 15.86513416 21000
ISS OBJECT XU           
1 66908U 98067XU  26105.64820632  .00276419  00000+0  10090-2 0  9994
2 66908  51.6202 234.8663 0010301 313.7349  46.2802 15.87046437 21015
SILVERSAT               
1 66909U 98067XV  26105.06953545  .00663705  20908-3  12552-2 0  9997
2 66909  51.6140 235.4536 0013604 318.9730  41.0255 15.99998535 20958
ISS OBJECT XW           
1 66910U 98067XW  26105.62627060  .00186462  00000+0  82770-3 0  9998
2 66910  51.6190 235.4701 0009777 309.4685  50.5452 15.83227178 21001
ISS OBJECT XY           
1 66912U 98067XY  26105.68161488  .00084317  00000+0  63111-3 0  9997
2 66912  51.6236 238.8979 0006625 305.6183  54.4198 15.71912015 20959
KNACKSAT-2              
1 67683U 98067XZ  26105.78258983  .00026505  00000+0  39373-3 0  9999
2 67683  51.6306 247.1030 0011498 325.8879  34.1372 15.54923945 10553
CORAL                   
1 67684U 98067YA  26105.65520931  .00060710  00000+0  70726-3 0  9994
2 67684  51.6288 246.2488 0015091 317.4992  42.4832 15.60950170 10556
GXIBA-1                 
1 67685U 98067YB  26105.63662027  .00028254  00000+0  40774-3 0  9993
2 67685  51.6294 247.6274 0013407 322.0719  37.9327 15.55649076 10530
UITMSAT-2               
1 67686U 98067YC  26105.60841351  .00035179  00000+0  48102-3 0  9997
2 67686  51.6289 247.4407 0010323 300.6666  59.3308 15.57033461 10532
HMU-SAT2                
1 67687U 98067YD  26105.64479560  .00027451  00000+0  40169-3 0  9990
2 67687  51.6309 247.6867 0009738 302.7323  57.2729 15.55335019 10456
LEOPARD                 
1 67688U 98067YE  26105.68548372  .00031924  00000+0  44766-3 0  9990
2 67688  51.6293 247.2066 0009990 301.5741  58.4275 15.56407127 10468
CREW DRAGON 12          
1 67796U 26031A   26105.87667374  .00005471  00000+0  10765-3 0  9997
2 67796  51.6326 248.4785 0006598 317.1782  42.8691 15.48928061562147
PROGRESS-MS 33          
1 68319U 26058A   26105.87667374  .00005471  00000+0  10765-3 0  9998
2 68319  51.6326 248.4785 0006598 317.1782  42.8691 15.48928061  3161
CYGNUS NG-24            
1 68689U 26079A   26105.87667374  .00005471  00000+0  10765-3 0  9991
2 68689  51.6326 248.4785 0006598 317.1782  42.8691 15.48928061   629
